#aV2023  2 20  0  0  0.00000000     288 DD+AD WGS84 FIT  NGA
## 2250  86400.00000000   300.00000000 59995 0.0000000000000
+   32     1  2  3  4  5  6  7  8  9 10 11 12 13 14 15 16 17
+         18 19 20 21 22 23 24 25 26 27 28 29 30 31 32  0  0
+          0  0  0  0  0  0  0  0  0  0  0  0  0  0  0  0  0
+          0  0  0  0  0  0  0  0  0  0  0  0  0  0  0  0  0
+          0  0  0  0  0  0  0  0  0  0  0  0  0  0  0  0  0
++         2  2  2  2  2  2  2  2  2  2  2  2  2  2  2  2  2
++         2  2  2  2  2  2  2  2  2  2  2  2  2  2  2  0  0
++         0  0  0  0  0  0  0  0  0  0  0  0  0  0  0  0  0
++         0  0  0  0  0  0  0  0  0  0  0  0  0  0  0  0  0
++         0  0  0  0  0  0  0  0  0  0  0  0  0  0  0  0  0
%c cc cc ccc ccc cccc cccc cccc cccc ccccc ccccc ccccc ccccc
%c cc cc ccc ccc cccc cccc cccc cccc ccccc ccccc ccccc ccccc
%f  0.0000000  0.000000000  0.00000000000  0.000000000000000
%f  0.0000000  0.000000000  0.00000000000  0.000000000000000
%i    0    0    0    0      0      0      0      0         0
%i    0    0    0    0      0      0      0      0         0
/*      NGA, ST. LOUIS,MO.                                  
/*   EPHEMERIS COMPUTED FROM 2 DAYS OF DATA                 
/*   EPOCHA v8 SMOOTHER                                     
/*   G2139 IERS2010 SATIGS SATAPC                           
*  2023  2 20  6 40  0.00000000
P  1 -13446.209670  22109.257783  -5393.168234    210.560577                    
V  1  -5722.034621   3707.165804  31637.057843     -0.041479                    
P  2   9194.876159 -23905.713880   8097.373423   -619.618479                    
V  2   6959.707767  -6618.731899 -29530.903083      0.026087                    
P  3  -9045.829625  13201.056752 -21299.069537   -360.902296                    
V  3 -26361.984233  -4494.478812   8568.574631      0.047322                    
P  4  -2659.908292  22132.859086 -14347.508595    -23.597861                    
V  4  -8198.503060 -16470.527956 -23983.023126      0.082863                    
P  5  22928.248771  -6024.702344  11926.506539   -116.602515                    
V  5  15062.463227   3744.610722 -26570.689723     -0.014666                    
P  6  14301.229418   5042.503614 -21748.740854    574.389512                    
V  6 -17055.867475  21812.535022  -6046.896505      0.041018                    
P  7  -1451.795865  20842.275732  16539.454856    237.633317                    
V  7 -14438.517066  14615.424155 -20707.019890     -0.071955                    
P  8 -10622.137171  12296.345813  20876.042386   -109.349813                    
V  8 -11411.969819 -24189.599040   8802.732173     -0.018302                    
P  9   6878.400290  25164.315694  -4929.189139   -214.863609                    
V  9  -5101.918260  -4549.548097 -30852.777641      0.071274                    
P 10 -20863.480181 -11397.969367  12336.175120    -25.464201                    
V 10  15323.531408    537.122611  26489.570875     -0.016228                    
P 11  20499.765103  -7572.912278 -15062.473715   -109.123659                    
V 11 -11125.890119  15709.225250 -23055.062192     -0.104314                    
P 12  11720.004599 -12138.460638 -20768.743181   -342.519867                    
V 12  24968.202773   6346.247434  10621.151690     -0.045999                    
P 13  14320.755501  -4261.916863  21780.172686    478.984779                    
V 13   6875.364354  27197.317461    984.040231      0.060757                    
P 14  18361.402333  13384.450666  13863.614604    -22.819487                    
V 14 -17712.747827   -787.158118  24098.689817      0.092064                    
P 15   9162.110163 -14055.766413  20084.152230     15.034293                    
V 15  14313.511580  22560.183739   9327.656598      0.033373                    
P 16 -24675.152175   1274.314343  10034.954974   -519.247359                    
V 16 -12192.446237  -5046.106551 -28028.403291      0.017763                    
P 17  12792.065487  21639.128551  -7985.421852    701.152546                    
V 17   1116.694394  10943.469666  29932.650165      0.023461                    
P 18   -976.264738 -18832.936604  18646.705114   -148.186492                    
V 18  16057.818990 -17470.250892 -16945.002108     -0.159393                    
P 19  15748.755007  13416.785509 -17037.698157    280.117806                    
V 19   4432.734003  20623.938126  20349.770142      0.050906                    
P 20  26385.005987  -1405.104144   1171.862248    449.604529                    
V 20   1533.514993   3409.317850 -31528.251475     -0.023466                    
P 21 -16954.400198  19358.529528   5017.275617    154.095132                    
V 21    388.329696  -6679.811482  31446.914073      0.001855                    
P 22 -16238.054403  -9980.088318 -18131.822376    430.673379                    
V 22  -5509.909783 -23260.136767  17157.267963      0.076318                    
P 23 -10204.501810 -14697.575295  19680.305559      6.950694                    
V 23  24854.547861   1859.465786  14137.150778      0.017050                    
P 24  14219.948291 -22158.904904   -394.817710    -81.281519                    
V 24   3422.265291   2132.360157  31418.947499     -0.158909                    
P 25    384.545069 -15582.771104 -21830.467557    421.617280                    
V 25  26758.618145   3542.741412  -1814.236801      0.031743                    
P 26 -26126.821451  -4645.502551  -3452.330441    241.634739                    
V 26   4470.999573  -2957.146244 -30532.389921      0.002731                    
P 27 -15703.426330     39.081052  21245.338874     98.133770                    
V 27  -9865.685600 -25604.360364  -6758.902651     -0.089655                    
P 28 -13641.717712  -7012.638371 -21714.635480     19.411081                    
V 28  16042.759550 -22330.362384  -2876.631315      0.141750                    
P 29  -2418.422215 -25253.116673  -7774.360714   -587.083292                    
V 29   5010.249112   8711.025095 -30113.544014     -0.019868                    
P 30   9742.026929  12811.911223  21195.899043   -529.682669                    
V 30 -17330.510144  20482.765082  -4696.954356      0.013224                    
P 31 -16336.142253  -3476.800069 -20911.066194   -209.725491                    
V 31  16137.857858 -20513.703470  -8821.890274     -0.010275                    
P 32 -15564.034618 -18910.481617 -10359.852687   -401.610619                    
V 32  -2823.675015 -13250.965236  27779.814444     -0.114650                    
EOF
